{
  "type": "FeatureCollection",
  "features": [
    {
      "type": "Feature",
      "properties": {
        "norad_id": 30641,
        "name": "FENGYUN 1C DEB",
        "group": "fengyun-1c-debris",
        "lat": 25.545036980960102,
        "lon": 99.49736672463045,
        "alt_km": 538.2282920817261,
        "timestamp": "2025-12-07T09:35:10.068081+00:00",
        "meta_object_name": "FENGYUN 1C DEB",
        "meta_object_id": "1999-025ANY",
        "meta_epoch": "2025-12-06T18:25:21.150624",
        "meta_mean_motion": 14.78892365,
        "meta_eccentricity": 0.01359871,
        "meta_inclination": 98.9419,
        "meta_ra_of_asc_node": 274.4798,
        "meta_arg_of_pericenter": 145.3226,
        "meta_mean_anomaly": 246.5844,
        "meta_ephemeris_type": 0,
        "meta_classification_type": "U",
        "meta_norad_cat_id": 30641,
        "meta_element_set_no": 999,
        "meta_rev_at_epoch": 444,
        "meta_bstar": 0.00083370735,
        "meta_mean_motion_dot": 7.115e-05,
        "meta_mean_motion_ddot": 0,
        "tle_line1": "1 30641U 99025ANY 25340.76760591  .00007115  00000+0  83371-3 0  9992",
        "tle_line2": "2 30641  98.9419 274.4798 0135987 145.3226 246.5844 14.78892365  4441"
      },
      "geometry": {
        "type": "Point",
        "coordinates": [
          99.49736672463045,
          25.545036980960102
        ]
      }
    },
    {
      "type": "Feature",
      "properties": {
        "norad_id": 30646,
        "name": "FENGYUN 1C DEB",
        "group": "fengyun-1c-debris",
        "lat": 36.543683004548896,
        "lon": -171.3729736221295,
        "alt_km": 861.3740843446903,
        "timestamp": "2025-12-07T09:35:10.068092+00:00",
        "meta_object_name": "FENGYUN 1C DEB",
        "meta_object_id": "1999-025APD",
        "meta_epoch": "2025-12-06T07:21:44.445024",
        "meta_mean_motion": 14.09629423,
        "meta_eccentricity": 0.0048506,
        "meta_inclination": 98.6528,
        "meta_ra_of_asc_node": 1.0968,
        "meta_arg_of_pericenter": 50.1797,
        "meta_mean_anomaly": 310.3628,
        "meta_ephemeris_type": 0,
        "meta_classification_type": "U",
        "meta_norad_cat_id": 30646,
        "meta_element_set_no": 999,
        "meta_rev_at_epoch": 96514,
        "meta_bstar": 0.0011140467,
        "meta_mean_motion_dot": 1.932e-05,
        "meta_mean_motion_ddot": 0,
        "tle_line1": "1 30646U 99025APD 25340.30676441  .00001932  00000+0  11140-2 0  9992",
        "tle_line2": "2 30646  98.6528   1.0968 0048506  50.1797 310.3628 14.09629423965143"
      },
      "geometry": {
        "type": "Point",
        "coordinates": [
          -171.3729736221295,
          36.543683004548896
        ]
      }
    },
    {
      "type": "Feature",
      "properties": {
        "norad_id": 30647,
        "name": "FENGYUN 1C DEB",
        "group": "fengyun-1c-debris",
        "lat": 62.33132929756699,
        "lon": -104.54275132754779,
        "alt_km": 711.3944188920987,
        "timestamp": "2025-12-07T09:35:10.068102+00:00",
        "meta_object_name": "FENGYUN 1C DEB",
        "meta_object_id": "1999-025APE",
        "meta_epoch": "2025-12-04T18:52:56.020800",
        "meta_mean_motion": 14.56227165,
        "meta_eccentricity": 0.00288037,
        "meta_inclination": 98.989,
        "meta_ra_of_asc_node": 270.2156,
        "meta_arg_of_pericenter": 199.8234,
        "meta_mean_anomaly": 214.8083,
        "meta_ephemeris_type": 0,
        "meta_classification_type": "U",
        "meta_norad_cat_id": 30647,
        "meta_element_set_no": 999,
        "meta_rev_at_epoch": 97873,
        "meta_bstar": 0.0059112224,
        "meta_mean_motion_dot": 0.0002633,
        "meta_mean_motion_ddot": 0,
        "tle_line1": "1 30647U 99025APE 25338.78675950  .00026330  00000+0  59112-2 0  9996",
        "tle_line2": "2 30647  98.9890 270.2156 0028803 199.8234 214.8083 14.56227165978734"
      },
      "geometry": {
        "type": "Point",
        "coordinates": [
          -104.54275132754779,
          62.33132929756699
        ]
      }
    },
    {
      "type": "Feature",
      "properties": {
        "norad_id": 30648,
        "name": "FENGYUN 1C DEB",
        "group": "fengyun-1c-debris",
        "lat": 11.145425744448188,
        "lon": 74.21946592866922,
        "alt_km": 750.15821186432,
        "timestamp": "2025-12-07T09:35:10.068113+00:00",
        "meta_object_name": "FENGYUN 1C DEB",
        "meta_object_id": "1999-025APF",
        "meta_epoch": "2025-12-06T05:28:36.501600",
        "meta_mean_motion": 14.47956529,
        "meta_eccentricity": 0.00348713,
        "meta_inclination": 98.6433,
        "meta_ra_of_asc_node": 74.7397,
        "meta_arg_of_pericenter": 146.907,
        "meta_mean_anomaly": 243.0891,
        "meta_ephemeris_type": 0,
        "meta_classification_type": "U",
        "meta_norad_cat_id": 30648,
        "meta_element_set_no": 999,
        "meta_rev_at_epoch": 97772,
        "meta_bstar": 0.0036173936,
        "meta_mean_motion_dot": 0.00013502,
        "meta_mean_motion_ddot": 0,
        "tle_line1": "1 30648U 99025APF 25340.22820025  .00013502  00000+0  36174-2 0  9994",
        "tle_line2": "2 30648  98.6433  74.7397 0034871 146.9070 243.0891 14.47956529977724"
      },
      "geometry": {
        "type": "Point",
        "coordinates": [
          74.21946592866922,
          11.145425744448188
        ]
      }
    },
    {
      "type": "Feature",
      "properties": {
        "norad_id": 30649,
        "name": "FENGYUN 1C DEB",
        "group": "fengyun-1c-debris",
        "lat": 21.092306614846372,
        "lon": -99.92110592908307,
        "alt_km": 760.7993394113064,
        "timestamp": "2025-12-07T09:35:10.068123+00:00",
        "meta_object_name": "FENGYUN 1C DEB",
        "meta_object_id": "1999-025APG",
        "meta_epoch": "2025-12-06T19:59:47.944320",
        "meta_mean_motion": 14.29441794,
        "meta_eccentricity": 0.00513733,
        "meta_inclination": 98.8098,
        "meta_ra_of_asc_node": 76.0772,
        "meta_arg_of_pericenter": 188.1091,
        "meta_mean_anomaly": 298.5385,
        "meta_ephemeris_type": 0,
        "meta_classification_type": "U",
        "meta_norad_cat_id": 30649,
        "meta_element_set_no": 999,
        "meta_rev_at_epoch": 96979,
        "meta_bstar": 0.0034805805,
        "meta_mean_motion_dot": 8.974e-05,
        "meta_mean_motion_ddot": 0,
        "tle_line1": "1 30649U 99025APG 25340.83319380  .00008974  00000+0  34806-2 0  9996",
        "tle_line2": "2 30649  98.8098  76.0772 0051373 188.1091 298.5385 14.29441794969797"
      },
      "geometry": {
        "type": "Point",
        "coordinates": [
          -99.92110592908307,
          21.092306614846372
        ]
      }
    },
    {
      "type": "Feature",
      "properties": {
        "norad_id": 30650,
        "name": "FENGYUN 1C DEB",
        "group": "fengyun-1c-debris",
        "lat": 79.59338521490821,
        "lon": -96.17470889821573,
        "alt_km": 855.7131838058131,
        "timestamp": "2025-12-07T09:35:10.068133+00:00",
        "meta_object_name": "FENGYUN 1C DEB",
        "meta_object_id": "1999-025APH",
        "meta_epoch": "2025-12-06T15:02:28.927680",
        "meta_mean_motion": 14.13884814,
        "meta_eccentricity": 0.00720863,
        "meta_inclination": 99.2045,
        "meta_ra_of_asc_node": 21.0358,
        "meta_arg_of_pericenter": 206.5175,
        "meta_mean_anomaly": 278.2554,
        "meta_ephemeris_type": 0,
        "meta_classification_type": "U",
        "meta_norad_cat_id": 30650,
        "meta_element_set_no": 999,
        "meta_rev_at_epoch": 96212,
        "meta_bstar": 0.0026249734,
        "meta_mean_motion_dot": 5.057e-05,
        "meta_mean_motion_ddot": 0,
        "tle_line1": "1 30650U 99025APH 25340.62672370  .00005057  00000+0  26250-2 0  9999",
        "tle_line2": "2 30650  99.2045  21.0358 0072086 206.5175 278.2554 14.13884814962128"
      },
      "geometry": {
        "type": "Point",
        "coordinates": [
          -96.17470889821573,
          79.59338521490821
        ]
      }
    },
    {
      "type": "Feature",
      "properties": {
        "norad_id": 30652,
        "name": "FENGYUN 1C DEB",
        "group": "fengyun-1c-debris",
        "lat": -79.61056698474128,
        "lon": 72.1898147325251,
        "alt_km": 868.9385704700499,
        "timestamp": "2025-12-07T09:35:10.068159+00:00",
        "meta_object_name": "FENGYUN 1C DEB",
        "meta_object_id": "1999-025APJ",
        "meta_epoch": "2025-12-06T22:36:48.055968",
        "meta_mean_motion": 14.07802017,
        "meta_eccentricity": 0.00073494,
        "meta_inclination": 98.7858,
        "meta_ra_of_asc_node": 14.2327,
        "meta_arg_of_pericenter": 283.9013,
        "meta_mean_anomaly": 195.8422,
        "meta_ephemeris_type": 0,
        "meta_classification_type": "U",
        "meta_norad_cat_id": 30652,
        "meta_element_set_no": 999,
        "meta_rev_at_epoch": 96612,
        "meta_bstar": 8.4688062e-05,
        "meta_mean_motion_dot": 1.01e-06,
        "meta_mean_motion_ddot": 0,
        "tle_line1": "1 30652U 99025APJ 25340.94222287  .00000101  00000+0  84688-4 0  9990",
        "tle_line2": "2 30652  98.7858  14.2327 0007349 283.9013 195.8422 14.07802017966126"
      },
      "geometry": {
        "type": "Point",
        "coordinates": [
          72.1898147325251,
          -79.61056698474128
        ]
      }
    }
  ]
}